QMR-KWT-2 (RS95S)
1 67291U 25313AV  26200.72338959  .00006812  00000-0  25927-3 0  9990
2 67291  97.3911 275.6105 0007834 228.0755 131.9817 15.27042766 30951
LOBACHEVSKY (RS83S)
1 67284U 25313AN  26200.81662979  .00002547  00000-0  11070-3 0  9999
2 67284  97.3906 274.9976 0009204 239.1998 120.8333 15.23161411 30922
NASBSAT-1
1 67289U 25313AT  26200.74459456  .00006684  00000-0  25705-3 0  9996
2 67289  97.3917 275.5877 0008138 230.5662 129.4857 15.26703800 30950
NASBSAT-2
1 67285U 25313AP  26200.73722936  .00003134  00000-0  13204-3 0  9995
2 67285  97.3905 275.0883 0008895 239.6542 120.3816 15.24054717 30928
HORS-5
1 67283U 25313AM  26200.71870012  .00003149  00000-0  13177-3 0  9995
2 67283  97.3922 275.1648 0008932 237.5780 122.4594 15.24276673 30921
AIST-2T 2
1 67253U 25313F   26200.75008558  .00019398  00000-0  23447-3 0  9998
2 67253  97.0816 278.3218 0005197 134.3032 225.8653 15.60735237 31706
AIST-2T 1
1 67254U 25313G   26200.78230936  .00017115  00000-0  20741-3 0  9998
2 67254  97.0816 278.2756 0003898 109.0509 251.1171 15.60699876 31690
AIST-ST (RS86S)
1 67267U 25313V   26200.77303814  .00005010  00000-0  20605-3 0  9997
2 67267  97.3920 275.1115 0012027 250.3460 109.6480 15.24548295 30921
KOWSAR 1.5
1 67264U 25313S   26200.78052194  .00002976  00000-0  13067-3 0  9999
2 67264  97.4008 275.0128 0013237 252.2150 107.7643 15.22644293 30901
PAYA
1 67255U 25313H   26200.70998640  .00000875  00000-0  59240-4 0  9996
2 67255  97.2848 266.9084 0067395 221.3107 138.3012 15.07224099 30556
GRIFON-1
1 67281U 25313AK  26200.72958412  .00002359  00000-0  10382-3 0  9992
2 67281  97.3864 274.7101 0010451 241.6041 118.4142 15.22799602 30900
GRIFON-2
1 67272U 25313AA  26200.75921262  .00005517  00000-0  22691-3 0  9993
2 67272  97.3925 275.1252 0012117 245.0356 114.9623 15.24500543 30921
GRIFON-3
1 67280U 25313AJ  26200.74224397  .00002368  00000-0  10448-3 0  9994
2 67280  97.3981 274.9958 0011681 242.8307 117.1739 15.22702219 30901
GRIFON-4
1 67261U 25313P   26200.71511910  .00008833  00000-0  33212-3 0  9997
2 67261  97.3951 275.5796 0012307 237.9393 122.0652 15.27318645 30944
MARAFON
1 67250U 25313C   26200.76058917  .00004388  00000-0  38269-3 0  9991
2 67250  97.6148 270.2545 0148608 228.2794 130.5636 14.89195264 30201
MORSAT (RS96S)
1 67262U 25313Q   26200.77512184  .00001998  00000-0  83451-4 0  9994
2 67262  97.3924 275.1032 0013004 243.3767 116.6139 15.24736112 30922
MARAFON-EXPERIMENTAL
1 67251U 25313D   26200.78871985  .00000975  00000-0  88537-4 0  9994
2 67251  97.5672 269.7311 0147498 218.2982 140.7690 14.89719655 30255
GXIBA-1
1 67684U 98067YA  26200.80162086  .00414321  79535-4  10456-2 0  9998
2 67684  51.6142 117.9430 0001511 287.5845  72.4998 15.95020050 25535
CORAL
1 67685U 98067YB  26200.82579072  .00039987  00000-0  40331-3 0  9992
2 67685  51.6254 128.7462 0008404 341.1175  18.9507 15.64920478 25390
KNACKSAT-2
1 67683U 98067XZ  26200.22393463  .00034381  00000-0  37974-3 0  9994
2 67683  51.6273 132.9886 0008148 342.4900  17.5813 15.62683564 25284
RASSVET-3 1
1 68360U 26061A   26200.82529622  .00001132  00000-0  54102-4 0  9997
2 68360  82.2921 338.7331 0000972 154.9265 205.2016 15.18048007 18523
RASSVET-3 2
1 68361U 26061B   26200.85161870  .00005141  00000-0  17649-3 0  9996
2 68361  82.2937 337.3528 0009989 342.2309  17.8579 15.29859908 18615
RASSVET-3 3
1 68362U 26061C   26200.81229922  .00001438  00000-0  69166-4 0  9993
2 68362  82.2969 340.8575 0003483 119.8900 240.2680 15.18049709 18398
RASSVET-3 5
1 68364U 26061E   26200.81880616  .00001346  00000-0  64646-4 0  9994
2 68364  82.2976 341.6849 0001480 149.7153 210.4166 15.18039120 18347
RASSVET-3 6
1 68365U 26061F   26200.81449623  .00001428  00000-0  68665-4 0  9990
2 68365  82.2954 341.3402 0002752 105.0958 255.0579 15.18043717 18369
RASSVET-3 7
1 68366U 26061G   26200.48707894  .00001207  00000-0  57826-4 0  9993
2 68366  82.2952 341.0284 0002932  76.0335 284.1224 15.18029232 18354
RASSVET-3 8
1 68367U 26061H   26200.83041132  .00001774  00000-0  83517-4 0  9994
2 68367  82.2932 338.1309 0004442 288.7561  71.3190 15.18935657 18567
RASSVET-3 9
1 68368U 26061J   26200.75720310  .00001116  00000-0  53325-4 0  9992
2 68368  82.2938 338.9865 0003142 181.0673 179.0554 15.18049334 18506
RASSVET-3 10
1 68369U 26061K   26200.78037559 -.00087304  00000-0 -98764-3 0  9992
2 68369  82.2890 334.7698 0002647 248.2404 111.8572 15.62705185 18774
RASSVET-3 11
1 68370U 26061L   26200.81377366  .00027421  00000-0  25443-3 0  9997
2 68370  82.2934 336.0020 0007445  54.0309 306.1640 15.67262389 18692
RASSVET-3 12
1 68371U 26061M   26200.75504745  .00001235  00000-0  59225-4 0  9995
2 68371  82.2959 341.4079 0000258 102.7789 257.3473 15.18039106 18351
RASSVET-3 13
1 68372U 26061N   26200.76378112  .00001264  00000-0  60708-4 0  9994
2 68372  82.2971 340.9819 0001079 238.0458 122.0670 15.17992571 18383
RASSVET-3 14
1 68373U 26061P   26200.77786333  .00023395  00000-0  18064-3 0  9990
2 68373  82.2942 336.1233 0008702   7.7143 352.4251 15.71712903 18687
RASSVET-3 15
1 68374U 26061Q   26200.64095514  .00002016  00000-0  81795-4 0  9990
2 68374  82.2960 338.0437 0005003  92.4111 267.7698 15.24046232 18554
RASSVET-3 16
1 68375U 26061R   26200.82741394  .00001157  00000-0  55431-4 0  9998
2 68375  82.2941 338.9307 0000931 166.3379 193.7880 15.18013954 18516
HADES-SA (SPINNYONE)
1 68446U 26067AG  26200.81672256  .00010199  00000-0  47523-3 0  9990
2 68446  97.4421 158.6517 0005367 347.3055  12.8043 15.20074216 16887
OBZP1
1 90000U 00001A   26082.73220162  .00000000  00000-0  52294-3 0    10
2 90000  82.2945 108.6614 0025130  78.3270   5.7283 15.88315102    15
